OBJECTID;Business_Name;Business Address;Business_Type;City;State;Zip;
 392;MONTELEONE HOTEL;214 ROYAL ST;4701 - HOTELS (EXC CASINO HOTELS) & MOTELS;NEW ORLEANS;LA;70130;
 393;ROYAL ORLEANS HOTEL;621 ST LOUIS ST;4701 - HOTELS (EXC CASINO HOTELS) & MOTELS;NEW ORLEANS;LA;70130;
 394;R & B ROOMS;1931 ORLEANS AVE;4702 - ROOMING & BOARDING HOUSES;NEW ORLEANS;LA;70116;
 395;MARQUETTE HOUSE HOTEL;2253 CARONDELET ST;4701 - HOTELS (EXC CASINO HOTELS) & MOTELS;NEW ORLEANS;LA;70130;
 396;FAIRCHILD HOUSE;1518 PRYTANIA ST;4701 - HOTELS (EXC CASINO HOTELS) & MOTELS;NEW ORLEANS;LA;70130;
 397;SUN OAK MUSEUM AND GUEST HOUSE;2020 BURGUNDY ST;4703 - BED & BREAKFAST INNS;NEW ORLEANS;LA;70116;
 398;THE GRAND VICTORIAN BED & BREAKFAST;2727 ST CHARLES AVE;4701 - HOTELS (EXC CASINO HOTELS) & MOTELS;NEW ORLEANS;LA;70130;
 399;THE LAUREL GUEST HOME;3626 DELGADO DR;4703 - BED & BREAKFAST INNS;NEW ORLEANS;LA;70119;
 400;RENAISSANCE ARTS HOTEL;700 TCHOUPITOULAS ST;4701 - HOTELS (EXC CASINO HOTELS) & MOTELS;NEW ORLEANS;LA;70130;
 401;929 MARIGNY PAINTED LADY'S INN;929 MARIGNY ST;4703 - BED & BREAKFAST INNS;NEW ORLEANS;LA;70117;
 402;ROYAL STREET COURTYARD;2438 ROYAL ST;4701 - HOTELS (EXC CASINO HOTELS) & MOTELS;NEW ORLEANS;LA;70117;
 403;1851 INN ON ST CHARLES;2409 ST CHARLES AVE;4703 - BED & BREAKFAST INNS;NEW ORLEANS;LA;70130;
 404;1896 O'MALLEY HOUSE;120 S PIERCE ST;4701 - HOTELS (EXC CASINO HOTELS) & MOTELS;NEW ORLEANS;LA;70119;
 405;HARRAH'S POYDRAS HOTEL;228 POYDRAS ST;2060 - CASINO HOTELS;NEW ORLEANS;LA;70130;
 406;A & C CORPORATION;7418 CHEF MENTEUR HWY;4701 - HOTELS (EXC CASINO HOTELS) & MOTELS;NEW ORLEANS;LA;70126;
 407;LOOKOUT INN NEW ORLEANS;833 POLAND AVE;4701 - HOTELS (EXC CASINO HOTELS) & MOTELS;NEW ORLEANS;LA;70117;
 408;W FRENCH QUARTER HOTEL;316 CHARTRES ST;4701 - HOTELS (EXC CASINO HOTELS) & MOTELS;NEW ORLEANS;LA;70130;
 409;CARRIE'S COOL PROPERTIES;1466 MAGAZINE ST;4703 - BED & BREAKFAST INNS;NEW ORLEANS;LA;70130;
 410;ASTOR CROWN PLAZA NEW ORLEANS ATTN: DIR. OF FIN.;739 CANAL ST;4701 - HOTELS (EXC CASINO HOTELS) & MOTELS;NEW ORLEANS;LA;70130;
 411;LOEWS NEW ORLEANS HOTEL;300 POYDRAS ST;4701 - HOTELS (EXC CASINO HOTELS) & MOTELS;NEW ORLEANS;LA;70130;
 412;MAISON TOURISTE;430 BERMUDA ST;4703 - BED & BREAKFAST INNS;NEW ORLEANS;LA;70114;
 413;MONTE CARLO MOTEL;6061 CHEF MENTEUR HWY;4701 - HOTELS (EXC CASINO HOTELS) & MOTELS;NEW ORLEANS;LA;70125;
 414;ELYSAIN FIELDS INN;930 ELYSIAN FIELDS AVE;4703 - BED & BREAKFAST INNS;NEW ORLEANS;LA;70117;
 415;QUEEN & CRESCENT HOTEL;344 CAMP ST;4701 - HOTELS (EXC CASINO HOTELS) & MOTELS;NEW ORLEANS;LA;70130;
 416;THE TOWNHOUSE;1332 MAGAZINE ST;4703 - BED & BREAKFAST INNS;NEW ORLEANS;LA;70130;
 417;1503 GUEST HOUSE LLC;1503 TCHOUPITOULAS ST;4703 - BED & BREAKFAST INNS;NEW ORLEANS;LA;70130;
 418;NEW ORLEANS COURTYARD HOTEL;1101 N RAMPART ST;4701 - HOTELS (EXC CASINO HOTELS) & MOTELS;NEW ORLEANS;LA;70116;
 419;SONDER;508 CHARTRES ST;4701 - HOTELS (EXC CASINO HOTELS) & MOTELS;NEW ORLEANS;LA;70116;
 420;NOLA10LLC;6303 CHEF MENTEUR HWY;4701 - HOTELS (EXC CASINO HOTELS) & MOTELS;NEW ORLEANS;LA;70126;
 421;DOUBLETREE HOTEL;300 CANAL ST;4701 - HOTELS (EXC CASINO HOTELS) & MOTELS;NEW ORLEANS;LA;70130;
 422;MAISON MARAIS;2360 MARAIS ST;8806 - .1(43) BED AND BREAKFAST 1 TO 2 ROOMS;NEW ORLEANS;LA;70117;
 423;HOLIDAY INN CLUB VACATIONS INCORPORATED;203 CARONDELET ST;4701 - HOTELS (EXC CASINO HOTELS) & MOTELS;NEW ORLEANS;LA;70130;
 424;HAMPTON INN & SUITES NEW ORLEANS-CONVENTION CENTER;1201 CONVENTION CENTER BLVD;4701 - HOTELS (EXC CASINO HOTELS) & MOTELS;NEW ORLEANS;LA;70130;
 425;MOTEL 6;4200 OLD GENTILLY RD;4701 - HOTELS (EXC CASINO HOTELS) & MOTELS;NEW ORLEANS;LA;70126;
 426;SEXTANT STAYS;1148 S PETERS ST;4701 - HOTELS (EXC CASINO HOTELS) & MOTELS;NEW ORLEANS;LA;70130;
 427;VIRGIN HOTELS NEW ORLEANS;550 BARONNE ST;4701 - HOTELS (EXC CASINO HOTELS) & MOTELS;NEW ORLEANS;LA;70113;
 428;EMANUEL & SHENA�S BED & BREAKFAST;3350 NEVADA ST;4703 - BED & BREAKFAST INNS;NEW ORLEANS;LA;70114;
 429;DEGAS HOUSE;2306 ESPLANADE AVE;4701 - HOTELS (EXC CASINO HOTELS) & MOTELS;NEW ORLEANS;LA;70119;
 430;SONDER USA;1430 ST CHARLES AVE;4701 - HOTELS (EXC CASINO HOTELS) & MOTELS;NEW ORLEANS;LA;70130;
 431;TOWNEPLACE SUITES BY MARRIOTT NEW ORLEANS;1600 CANAL STREET;4701 - HOTELS (EXC CASINO HOTELS) & MOTELS;NEW ORLEANS;LA;70112;
 432;HAMPTON INN & SUITES DOWNTOWN;226 CARONDELET ST;4701 - HOTELS (EXC CASINO HOTELS) & MOTELS;NEW ORLEANS;LA;70130;
 433;URBANIA HOUSE;1365 CONSTANCE ST;8807 - .1(43) BED AND BREAKFAST 3 TO 5 ROOMS;NEW ORLEANS;LA;70130;
 434;SAXONY MANAGEMENT;2126 N RAMPART ST;4701 - HOTELS (EXC CASINO HOTELS) & MOTELS;NEW ORLEANS;LA;70116;
 435;FORTUNA 1317 COLUMBUS;1317 COLUMBUS ST;4703 - BED & BREAKFAST INNS;NEW ORLEANS;LA;70116;
 436;BIENVILLE HOUSE MOTOR HOTEL;320 DECATUR ST;4701 - HOTELS (EXC CASINO HOTELS) & MOTELS;NEW ORLEANS;LA;70130;
 437;CORNSTALK HOTEL;915 ROYAL ST;4701 - HOTELS (EXC CASINO HOTELS) & MOTELS;NEW ORLEANS;LA;70116;
 438;QUALITY INN MAISON ST CHARLES;1319 ST CHARLES AVE;4701 - HOTELS (EXC CASINO HOTELS) & MOTELS;NEW ORLEANS;LA;70130;
 439;PRINCE CONTI HOTEL;830 CONTI ST;4701 - HOTELS (EXC CASINO HOTELS) & MOTELS;NEW ORLEANS;LA;70112-3440;
 440;HOTEL DE LA MONNAIE OWNERSASSOCIATION INC;405 ESPLANADE AVE;4701 - HOTELS (EXC CASINO HOTELS) & MOTELS;NEW ORLEANS;LA;70116;
 441;DAUZAT HOUSE;337 BURGUNDY ST;4702 - ROOMING & BOARDING HOUSES;NEW ORLEANS;LA;70112;
 442;NEW ORLEANS MARRIOTT HOTEL-[H/P];555 CANAL ST;4701 - HOTELS (EXC CASINO HOTELS) & MOTELS;NEW ORLEANS;LA;70130;
 443;ROSE MANOR;7214 PONTCHARTRAIN BLVD;4701 - HOTELS (EXC CASINO HOTELS) & MOTELS;NEW ORLEANS;LA;70124;
 444;LA DAUPHINE;2316 DAUPHINE ST;4703 - BED & BREAKFAST INNS;NEW ORLEANS;LA;70117;
 445;ECONOMY INN;8310 CHEF MENTEUR HWY;4704 - TRAVELER ACCOMMODATION, ALL OTH;NEW ORLEANS;LA;70126;
 446;ROYAL BARRACKS GUEST HOUSE;717 BARRACKS ST;4702 - ROOMING & BOARDING HOUSES;NEW ORLEANS;LA;70116;
 447;THE RITZ CARLTON HOTEL CO LLC;921 CANAL ST;4701 - HOTELS (EXC CASINO HOTELS) & MOTELS;NEW ORLEANS;LA;70112;
 448;HYATT FRENCH QUARTER;800 IBERVILLE ST;4701 - HOTELS (EXC CASINO HOTELS) & MOTELS;NEW ORLEANS;LA;70112;
 449;DRURY INN NEW ORLEANS;820 POYDRAS ST;4701 - HOTELS (EXC CASINO HOTELS) & MOTELS;NEW ORLEANS;LA;70112;
 450;FRENCH MARKET INN;501 DECATUR ST;4701 - HOTELS (EXC CASINO HOTELS) & MOTELS;NEW ORLEANS;LA;70130;
 451;ST. PETER GUEST HOUSE;1005 ST PETER ST;4701 - HOTELS (EXC CASINO HOTELS) & MOTELS;NEW ORLEANS;LA;70116;
 452;CREOLE HOUSE;1013 ST ANN ST;4701 - HOTELS (EXC CASINO HOTELS) & MOTELS;NEW ORLEANS;LA;70116;
 453;ROYAL SONESTA HOTEL;300 BOURBON ST;4701 - HOTELS (EXC CASINO HOTELS) & MOTELS;NEW ORLEANS;LA;70130;
 454;NEW ORLEANS GUEST HOUSE;1118 URSULINES AVE;4701 - HOTELS (EXC CASINO HOTELS) & MOTELS;NEW ORLEANS;LA;70116;
 455;MAISON DE LAGNIAPPE;1021 KERLEREC ST;4703 - BED & BREAKFAST INNS;NEW ORLEANS;LA;70116;
 456;LE PAVILLON HOTEL HOTEL TAX;833 POYDRAS ST;4701 - HOTELS (EXC CASINO HOTELS) & MOTELS;NEW ORLEANS;LA;70112;
 457;LA GALERIE;131 DECATUR ST;4701 - HOTELS (EXC CASINO HOTELS) & MOTELS;NEW ORLEANS;LA;70130;
 458;ROYAL SUNSHINE;3810 ROYAL ST;4703 - BED & BREAKFAST INNS;NEW ORLEANS;LA;70117;
 459;HENRY HOWARD HOTEL;2041 PRYTANIA ST;4701 - HOTELS (EXC CASINO HOTELS) & MOTELS;NEW ORLEANS;LA;70130;
 460;PONTCHARTRAIN HOTEL;2031 SAINT CHARLES AVE;4701 - HOTELS (EXC CASINO HOTELS) & MOTELS;NEW ORLEANS;LA;70130;
 461;FAIRFIELD INN & SUITES;346 BARONNE ST;4701 - HOTELS (EXC CASINO HOTELS) & MOTELS;NEW ORLEANS;LA;70112;
 462;FIVE CONTINENTS;1731 ESPLANADE AVE;4703 - BED & BREAKFAST INNS;NEW ORLEANS;LA;70116;
 463;ALOFT NEW ORLEANS DOWNTOWN;225 BARONNE ST;4701 - HOTELS (EXC CASINO HOTELS) & MOTELS;NEW ORLEANS;LA;70112;
 464;MAISON MACARTY;3820 BURGUNDY ST;4703 - BED & BREAKFAST INNS;NEW ORLEANS;LA;70117;
 465;TULANE HOTEL GROUP;3900 TULANE AVE;4701 - HOTELS (EXC CASINO HOTELS) & MOTELS;NEW ORLEANS;LA;70119;
 466;ALDER HOTEL UPTOWN;4545 MAGNOLIA ST;4701 - HOTELS (EXC CASINO HOTELS) & MOTELS;NEW ORLEANS;LA;70115;
 467;HOLIDAY INN EXPRESS;334 O KEEFE AVE;4701 - HOTELS (EXC CASINO HOTELS) & MOTELS;NEW ORLEANS;LA;70112;
 468;NEW ORLEANS JAZZ QUARTERS;1129ST PHILIP ST;4701 - HOTELS (EXC CASINO HOTELS) & MOTELS;NEW ORLEANS;LA;70116;
 469;ROYAL CRESCENT HOTEL;535 GRAVIER ST;4701 - HOTELS (EXC CASINO HOTELS) & MOTELS;NEW ORLEANS;LA;70130;
 470;PETER AND PAUL HOTEL;2317 BURGUNDY ST;4701 - HOTELS (EXC CASINO HOTELS) & MOTELS;NEW ORLEANS;LA;70117;
 471;RESIDENCE INN BY MARRIOT;360 ST CHARLES AVE;4701 - HOTELS (EXC CASINO HOTELS) & MOTELS;NEW ORLEANS;LA;70130;
 472;LE RICHELIEU;1234 CHARTRES ST;4701 - HOTELS (EXC CASINO HOTELS) & MOTELS;NEW ORLEANS;LA;70116;
 473;BEST WESTERN FRENCH QUARTER LANDMARK HOTEL;920 N RAMPART ST;4701 - HOTELS (EXC CASINO HOTELS) & MOTELS;NEW ORLEANS;LA;70116;
 474;SHERATON NEW ORLEANS HOTEL;500 CANAL ST;4701 - HOTELS (EXC CASINO HOTELS) & MOTELS;NEW ORLEANS;LA;70130;
 475;TONY'S FRENCH QUARTER ROOMS;335 DAUPHINE ST;4702 - ROOMING & BOARDING HOUSES;NEW ORLEANS;LA;70112;
 476;CKW INC;2624 URSULINES AVE;4702 - ROOMING & BOARDING HOUSES;NEW ORLEANS;LA;70119;
 477;H H WHITNEY HOUSE;1923 ESPLANADE AVE;4703 - BED & BREAKFAST INNS;NEW ORLEANS;LA;70116;
 478;INTERNATIONAL HOUSE HOTEL;221 CAMP ST;4701 - HOTELS (EXC CASINO HOTELS) & MOTELS;NEW ORLEANS;LA;70130;
 479;WYNDHAM NEW ORLEANS;124 ROYAL ST;4701 - HOTELS (EXC CASINO HOTELS) & MOTELS;NEW ORLEANS;LA;70130;
 480;JW MARRIOT NEW ORLEANS;614 CANAL ST;4701 - HOTELS (EXC CASINO HOTELS) & MOTELS;NEW ORLEANS;LA;70130;
 481;BEST WEST ST CHRIS HOTEL;114 MAGAZINE ST;4701 - HOTELS (EXC CASINO HOTELS) & MOTELS;NEW ORLEANS;LA;70130;
 482;MARDI GRAS RV PARK & MOTELS;6050 CHEF MENTEUR HWY;4701 - HOTELS (EXC CASINO HOTELS) & MOTELS;NEW ORLEANS;LA;70126;
 483;DAUPHINE ORLEANS HOTEL;415 DAUPHINE ST;4701 - HOTELS (EXC CASINO HOTELS) & MOTELS;NEW ORLEANS;LA;70112;
 484;HOLIDAY INN EXPRESS;7049 BULLARD AVE;4701 - HOTELS (EXC CASINO HOTELS) & MOTELS;NEW ORLEANS;LA;70128;
 485;FESTIVA RESORTS;519 FRENCHMEN ST;4701 - HOTELS (EXC CASINO HOTELS) & MOTELS;NEW ORLEANS;LA;70116;
 486;PARKVIEW GUEST HOUSE;7004 ST CHARLES AVE;4701 - HOTELS (EXC CASINO HOTELS) & MOTELS;NEW ORLEANS;LA;70118;
 487;WINDSOR COURT HOTEL;300 GRAVIER ST;4701 - HOTELS (EXC CASINO HOTELS) & MOTELS;NEW ORLEANS;LA;70130;
 488;AUDUBON COTTAGES;509 DAUPHINE ST;4701 - HOTELS (EXC CASINO HOTELS) & MOTELS;NEW ORLEANS;LA;70116;
 489;BLAKE HOTEL NEW ORLEANS;500 ST CHARLES AVE;4701 - HOTELS (EXC CASINO HOTELS) & MOTELS;NEW ORLEANS;LA;70130;
 490;FEDERAL CITY INN & SUITES;740 HEBERT DR;4701 - HOTELS (EXC CASINO HOTELS) & MOTELS;NEW ORLEANS;LA;70114;
 491;SUITE JAZZ ON FRENCHMEN;628 FRENCHMEN ST;4703 - BED & BREAKFAST INNS;NEW ORLEANS;LA;70116;
 492;INN ON URSULINES;708 URSULINES AVE;4701 - HOTELS (EXC CASINO HOTELS) & MOTELS;NEW ORLEANS;LA;70116;
 493;ROYAL INN OF NEW ORLEANS;4950 CHEF MENTEUR HWY;4701 - HOTELS (EXC CASINO HOTELS) & MOTELS;NEW ORLEANS;LA;70126;
 494;ANDREW JACKSON HOTEL;919 ROYAL ST;4701 - HOTELS (EXC CASINO HOTELS) & MOTELS;NEW ORLEANS;LA;70116;
 495;NEW ORLEANS FESTIVAL HOUSE;1653 N BROAD ST;4703 - BED & BREAKFAST INNS;NEW ORLEANS;LA;70119;
 496;AC HOTEL NEW ORLEANS BOURBON/FRENCH QUARTER AREA;221 CARONDELET ST;4701 - HOTELS (EXC CASINO HOTELS) & MOTELS;NEW ORLEANS;LA;70130;
 497;FLEUR DE MARIGNY;919 TOURO ST;4703 - BED & BREAKFAST INNS;NEW ORLEANS;LA;70116;
 498;CASA PELICAN LLC;712 PELICAN ST;4703 - BED & BREAKFAST INNS;NEW ORLEANS;LA;70114;
 499;MARK & RON'S B&B;1625 PAUGER ST;8806 - .1(43) BED AND BREAKFAST 1 TO 2 ROOMS;NEW ORLEANS;LA;70116;
 500;RATHB0NE MANSIONS;1244 ESPLANADE AVE;4701 - HOTELS (EXC CASINO HOTELS) & MOTELS;NEW ORLEANS;LA;70116;
 501;2036-38 IBERVILLE;2036-38 IBERVILLE ST;4701 - HOTELS (EXC CASINO HOTELS) & MOTELS;NEW ORLEANS;LA;70112;
 502;BLUE LAGOON NOLA;4417 DRYADES ST;4701 - HOTELS (EXC CASINO HOTELS) & MOTELS;NEW ORLEANS;LA;70115;
 503;MONARCH NEW ORLEANS, LP;210 O'KEEFE AVE;4701 - HOTELS (EXC CASINO HOTELS) & MOTELS;NEW ORLEANS;LA;70112;
 504;HYATT REGENCY NEW ORLEANS;601 LOYOLA AVE;4701 - HOTELS (EXC CASINO HOTELS) & MOTELS;NEW ORLEANS;LA;70113;
 505;THE JUNG HOTELS & RESIDENCES-HOTEL;1500 CANAL ST;4701 - HOTELS (EXC CASINO HOTELS) & MOTELS;NEW ORLEANS;LA;70112;
 506;LE SHACKTEAU;2110 MARAIS ST;8806 - .1(43) BED AND BREAKFAST 1 TO 2 ROOMS;NEW ORLEANS;LA;70116;
 507;SONDER;300 S RAMPART ST;4701 - HOTELS (EXC CASINO HOTELS) & MOTELS;NEW ORLEANS;LA;70112;
 508;MARGARET PLACE;1133 MARGARET PL;4703 - BED & BREAKFAST INNS;NEW ORLEANS;LA;70130;
 509;THE BRAKEMAN HOTEL;501 BASIN ST;4701 - HOTELS (EXC CASINO HOTELS) & MOTELS;NEW ORLEANS;LA;70112;
 510;GRENOBLE HOUSE;329 DAUPHINE ST;4701 - HOTELS (EXC CASINO HOTELS) & MOTELS;NEW ORLEANS;LA;70112;
 511;MASON MOTEL INC;2309 S CLAIBORNE AVE;4701 - HOTELS (EXC CASINO HOTELS) & MOTELS;NEW ORLEANS;LA;70125;
 512;EMPRESS HOTEL;1317 URSULINES AVE;4701 - HOTELS (EXC CASINO HOTELS) & MOTELS;NEW ORLEANS;LA;70116;
 513;MONROSE ROW B & B;1303 GOVERNOR NICHOLLS ST;4703 - BED & BREAKFAST INNS;NEW ORLEANS;LA;70116;
 514;1830 DAUPHINE HOUSE;1830 DAUPHINE ST;4703 - BED & BREAKFAST INNS;NEW ORLEANS;LA;70116;
 515;RENAISSANCE PERE MARQUETTE;817 COMMON ST;4701 - HOTELS (EXC CASINO HOTELS) & MOTELS;NEW ORLEANS;LA;70112;
 516;HAUNTED HOTEL ON URSULINES-HOTEL;623 URSULINES AVE;4702 - ROOMING & BOARDING HOUSES;NEW ORLEANS;LA;70116;
 517;EXTRA HOLIDAYS;2111 ST. CHARLES AVE;4701 - HOTELS (EXC CASINO HOTELS) & MOTELS;NEW ORLEANS;LA;70130;
 518;THE DUCHESS, LLC;833 6TH ST;4703 - BED & BREAKFAST INNS;NEW ORLEANS;LA;70115;
 519;H G NEW ORLEANS CONVENTION CENTER;1001 S PETERS ST;4701 - HOTELS (EXC CASINO HOTELS) & MOTELS;NEW ORLEANS;LA;70130;
 520;ENGINE 24 FIREHOUSE;2711 DAUPHINE ST;4703 - BED & BREAKFAST INNS;NEW ORLEANS;LA;70117;
 521;LAFAYETTE HOTEL;600 ST CHARLES AVE;4701 - HOTELS (EXC CASINO HOTELS) & MOTELS;NEW ORLEANS;LA;70130;
 522;MARIE LAVAEAU GUEST HOUSE;1024 ST ANN ST;4701 - HOTELS (EXC CASINO HOTELS) & MOTELS;NEW ORLEANS;LA;70116;
 523;LA RUE ESPLANADE;1834 ESPLANADE AVE;4703 - BED & BREAKFAST INNS;NEW ORLEANS;LA;70116;
 524;OLDE TOWN INN;1001 MARIGNY ST;4701 - HOTELS (EXC CASINO HOTELS) & MOTELS;NEW ORLEANS;LA;70117;
 525;COURTYARD NEW ORLEANS DOWNTOWN/IBERVILLE;910 IBERVILLE ST;4701 - HOTELS (EXC CASINO HOTELS) & MOTELS;NEW ORLEANS;LA;70130;
 526;HILTON NEW ORLEANS/ ST CHARLES AVENUE;15 ENTERPRISE AVE;4701 - HOTELS (EXC CASINO HOTELS) & MOTELS;ALISO VIEJO;CA;92656;
 527;NONI'S NOLA ON FRENCHMAN;726 FRENCHMEN ST;4703 - BED & BREAKFAST INNS;NEW ORLEANS;LA;70116;
 528;JACKS MOTEL;7700 CHEF MENTEUR HWY;4701 - HOTELS (EXC CASINO HOTELS) & MOTELS;NEW ORLEANS;LA;70126;
 529;MARCELIN'S ON NAPOLEON;3110 NAPOLEON AVE;4703 - BED & BREAKFAST INNS;NEW ORLEANS;LA;70125;
 530;MARIGNY JEWEL;2466 BURGUNDY ST;4703 - BED & BREAKFAST INNS;NEW ORLEANS;LA;70117;
 531;BY H20 BEAUTY;1025 ALVAR ST;4703 - BED & BREAKFAST INNS;NEW ORLEANS;LA;70117;
 532;WYNDHAM GARDEN HOTEL;10100 I 10 SERVICE RD;4701 - HOTELS (EXC CASINO HOTELS) & MOTELS;NEW ORLEANS;LA;70127;
 533;THE HOTEL MODERN;936 SAINT CHARLES AVE;4701 - HOTELS (EXC CASINO HOTELS) & MOTELS;NEW ORLEANS;LA;70130;
 534;ST. CHARLES INN - SUPERIOR HOTEL;3636 SAINT CHARLES AVE;4701 - HOTELS (EXC CASINO HOTELS) & MOTELS;NEW ORLEANS;LA;70115;
 535;PONTCHARTRAIN LANDING;6001 FRANCE RD;4701 - HOTELS (EXC CASINO HOTELS) & MOTELS;NEW ORLEANS;LA;70126;
 536;THE QUISBY;1225 ST CHARLES AVE;4701 - HOTELS (EXC CASINO HOTELS) & MOTELS;NEW ORLEANS;LA;70130;
 537;MAISON DUPUY HOTEL;1001 TOULOUSE ST;4701 - HOTELS (EXC CASINO HOTELS) & MOTELS;NEW ORLEANS;LA;70112;
 538;CHEZ PALMIERS BED & BREAKFAST;1744 N RAMPART ST;4703 - BED & BREAKFAST INNS;NEW ORLEANS;LA;70116;
 539;HOTEL MAZARIN;730 BIENVILLE ST;4701 - HOTELS (EXC CASINO HOTELS) & MOTELS;NEW ORLEANS;LA;70130;
 540;THE TROUBADOUR;1111 GRAVIER;4701 - HOTELS (EXC CASINO HOTELS) & MOTELS;NEW ORLEANS;LA;70112;
 541;FRENCHMEN HOUSE LLC;1125 FRENCHMEN ST;4703 - BED & BREAKFAST INNS;NEW ORLEANS;LA;70116;
 542;RATHBONE MANSIONS;1227 ESPLANADE AVE;4701 - HOTELS (EXC CASINO HOTELS) & MOTELS;NEW ORLEANS;LA;70116;
 543;TRIDENT INN AND SUITES;12340 I -10 SERVICE RD;4701 - HOTELS (EXC CASINO HOTELS) & MOTELS;NEW ORLEANS;LA;70128;
 544;MARSH HOTEL LLC;3435 DRYADES ST;4701 - HOTELS (EXC CASINO HOTELS) & MOTELS;NEW ORLEANS;LA;70115;
 545;SONDER USA;1016 CANAL ST;4701 - HOTELS (EXC CASINO HOTELS) & MOTELS;NEW ORLEANS;LA;70112;
 546;DAYS INN;4180 OLD GENTILLY ROAD;4701 - HOTELS (EXC CASINO HOTELS) & MOTELS;NEW ORLEANS;LA;70126;
 547;SEXTANT STAYS;822 HOWARD AVE;4701 - HOTELS (EXC CASINO HOTELS) & MOTELS;NEW ORLEANS;LA;70113;
 548;FOUR POINTS BY SHERATON FRENCH QUARTER;541 BOURBON ST;4701 - HOTELS (EXC CASINO HOTELS) & MOTELS;NEW ORLEANS;LA;70130;
 549;HOTEL MAISON PIERRE LAFITTE LTD;108 UNIVERSITY PL;4701 - HOTELS (EXC CASINO HOTELS) & MOTELS;NEW ORLEANS;LA;70112;
 550;905 ROYAL HOTEL;905 ROYAL ST;4701 - HOTELS (EXC CASINO HOTELS) & MOTELS;NEW ORLEANS;LA;70116;
 551;BON MAISON GUEST HOUSE;835 BOURBON ST;4702 - ROOMING & BOARDING HOUSES;NEW ORLEANS;LA;70116;
 552;HOUSE OF THE RISING SUN;335 PELICAN AVE;4703 - BED & BREAKFAST INNS;NEW ORLEANS;LA;70114;
 553;1415 CREOLE GARDENS;1415 PRYTANIA ST;4701 - HOTELS (EXC CASINO HOTELS) & MOTELS;NEW ORLEANS;LA;70130;
 554;SCHIRO'S GUEST HOUSE;P.O. BOX 24127 ST;4703 - BED & BREAKFAST INNS;NEW ORLEANS;LA;70184;
 555;MAISON PERRIER;4117 PERRIER ST;4703 - BED & BREAKFAST INNS;NEW ORLEANS;LA;70115;
 556;AIRYN MONET;1816 MARENGO ST;4703 - BED & BREAKFAST INNS;NEW ORLEANS;LA;70115;
 557;LOFT 523;523 GRAVIER ST;4701 - HOTELS (EXC CASINO HOTELS) & MOTELS;NEW ORLEANS;LA;70130;
 558;HOMEWOOD SUITES - NEW ORLEANS;901 POYDRAS ST;4701 - HOTELS (EXC CASINO HOTELS) & MOTELS;NEW ORLEANS;LA;70112;
 559;DELTA PROFICIENT MANAGEMENT, LLC;201 BARONNE ST;4701 - HOTELS (EXC CASINO HOTELS) & MOTELS;NEW ORLEANS;LA;70112;
 560;HOTEL INDIGO- BAR AND GARAGE;2203 ST CHARLES AVE;4701 - HOTELS (EXC CASINO HOTELS) & MOTELS;NEW ORLEANS;LA;70130;
 561;LA BELLE ESPLANADE;2216 ESPLANADE AVE;4703 - BED & BREAKFAST INNS;NEW ORLEANS;LA;70119;
 562;WEBBER'S MOTEL;9300 CHEF MENTEUR HWY;4701 - HOTELS (EXC CASINO HOTELS) & MOTELS;NEW ORLEANS;LA;70127;
 563;723 MARIGNY;723 MARIGNY ST;4703 - BED & BREAKFAST INNS;NEW ORLEANS;LA;70117;
 564;HOTEL ST PIERRE;911 BURGUNDY ST;4701 - HOTELS (EXC CASINO HOTELS) & MOTELS;NEW ORLEANS;LA;70116;
 565;AUBERGE NOUVELLE ORLEANS;1628 CARONDELET ST;4703 - BED & BREAKFAST INNS;NEW ORLEANS;LA;70130;
 566;RIVER HOUSE NEW ORLEANS;625 MARIGNY ST;4703 - BED & BREAKFAST INNS;NEW ORLEANS;LA;70117;
 567;SITE 61 HOSTEL;3701 ULLOA ST;4702 - ROOMING & BOARDING HOUSES;NEW ORLEANS;LA;70119;
 568;HILTON NEW ORLEANS RIVERSIDE;2 POYDRAS ST;4701 - HOTELS (EXC CASINO HOTELS) & MOTELS;NEW ORLEANS;LA;70130;
 569;HYATT HOUSE NEW ORLEANS DOWNTOWN;1250 POYDRAS ST;4701 - HOTELS (EXC CASINO HOTELS) & MOTELS;NEW ORLEANS;LA;70113;
 570;NOLA PLACE;616LOUISA ST;4703 - BED & BREAKFAST INNS;NEW ORLEANS;LA;70117;
 571;THE DRIFTER HOTEL;3522 TULANE AVE;4701 - HOTELS (EXC CASINO HOTELS) & MOTELS;NEW ORLEANS;LA;70119;
 572;HOMEWOOD SUITES NEW ORLEANS FRENCH QUARTER;317 N RAMPART ST;4701 - HOTELS (EXC CASINO HOTELS) & MOTELS;NEW ORLEANS;LA;70112;
 573;2028-30 IBERVILLE LLC;2028-30 IBERVILLE ST;4701 - HOTELS (EXC CASINO HOTELS) & MOTELS;NEW ORLEANS;LA;70112;
 574;MAISON DES LUNES, LLC;601 ELYSIAN FIELDS AVE;4703 - BED & BREAKFAST INNS;NEW ORLEANS;LA;70117;
 575;WELCOME ABROAD LLC;2233 BURGUNDY ST;4703 - BED & BREAKFAST INNS;NEW ORLEANS;LA;70117;
 576;THE BURGUNDY BED AND BREAKFAST;2513 BURGUNDY ST;4703 - BED & BREAKFAST INNS;NEW ORLEANS;LA;70117;
 577;FRENCH QUARTER SUITES;1119 N RAMPART ST;4701 - HOTELS (EXC CASINO HOTELS) & MOTELS;NEW ORLEANS;LA;70116;
 578;QUALITY INN;10020 I-10 SERVICE RD;4701 - HOTELS (EXC CASINO HOTELS) & MOTELS;NEW ORLEANS;LA;70127;
 579;SONDER USA, INC;427 ESPLANADE AVE;4701 - HOTELS (EXC CASINO HOTELS) & MOTELS;NEW ORLEANS;LA;70116;
 580;MAISON DE LA LUZ;546 CARONDELET ST;4701 - HOTELS (EXC CASINO HOTELS) & MOTELS;NEW ORLEANS;LA;70130;
 581;RODEWAY INN & SUITES;8400 INTERSTATE 10 SERVICE RD;4701 - HOTELS (EXC CASINO HOTELS) & MOTELS;NEW ORLEANS;LA;70127;
 582;HAMPTON INN & SUITES NEW ORLEANS-CONVENTION CENTER;1201 CONVENTION CENTER BLVD;4701 - HOTELS (EXC CASINO HOTELS) & MOTELS;NEW ORLEANS;LA;70130;
 583;THE SAINT HOTEL;931 CANAL ST;4701 - HOTELS (EXC CASINO HOTELS) & MOTELS;NEW ORLEANS;LA;70116;
 584;BOURBON ORLEANS HOTEL;717 ORLEANS AVE;4701 - HOTELS (EXC CASINO HOTELS) & MOTELS;NEW ORLEANS;LA;70116;
 585;HOTEL VINACHE;1300 CANAL STREET;4701 - HOTELS (EXC CASINO HOTELS) & MOTELS;NEW ORLEANS;LA;70112;
 586;OLIVIER HOUSE HOTEL;828 TOULOUSE ST;4701 - HOTELS (EXC CASINO HOTELS) & MOTELS;NEW ORLEANS;LA;70112;
 587;ST CHARLES COACH HOUSE;2001 ST CHARLES AVE;4701 - HOTELS (EXC CASINO HOTELS) & MOTELS;NEW ORLEANS;LA;70130;
 588;COURTYARD BY MARRIOTT #1MK-[H/P];300 JULIA ST;4701 - HOTELS (EXC CASINO HOTELS) & MOTELS;NEW ORLEANS;LA;70130;
 589;ECONO LODGE;4940 CHEF MENTEUR HWY;4701 - HOTELS (EXC CASINO HOTELS) & MOTELS;NEW ORLEANS;LA;70126-5016;
 590;SUNBURST INN;819 MANDEVILLE ST;4703 - BED & BREAKFAST INNS;NEW ORLEANS;LA;70117;
 591;GARDEN DISTRICT B & B;2418 MAGAZINE ST;4703 - BED & BREAKFAST INNS;NEW ORLEANS;LA;70130;
 592;HILTON N O RIVERSIDE HOTEL;2 POYDRAS ST;4701 - HOTELS (EXC CASINO HOTELS) & MOTELS;NEW ORLEANS;LA;70130;
 593;TERRELL HOUSE;1441 MAGAZINE ST;4703 - BED & BREAKFAST INNS;NEW ORLEANS;LA;70130;
 594;LITTLE EAZY BED & BREAKFAST;1526 PAUGER ST;4703 - BED & BREAKFAST INNS;NEW ORLEANS;LA;70116;
 595;OMNI RIVERFRONT HOTEL;701 CONVENTION CENTER BLVD;4701 - HOTELS (EXC CASINO HOTELS) & MOTELS;NEW ORLEANS;LA;70130;
 596;WINDSOR COURT HOTEL;300 GRAVIER ST;4701 - HOTELS (EXC CASINO HOTELS) & MOTELS;NEW ORLEANS;LA;70130;
 597;LAMOTHE HOUSE;621 ESPLANADE AVE;4701 - HOTELS (EXC CASINO HOTELS) & MOTELS;NEW ORLEANS;LA;70130;
 598;HOTEL INDIGO NO GARDEN DISTRICT - MAIN;2203 ST CHARLES AVE;4701 - HOTELS (EXC CASINO HOTELS) & MOTELS;NEW ORLEANS;LA;70130;
 599;PARKS BOWMAN HOUSE;2705 CHESTNUT ST;8807 - .1(43) BED AND BREAKFAST 3 TO 5 ROOMS;NEW ORLEANS;LA;70130;
 600;MELROSE MANSION;937 ESPLANADE AVE;4701 - HOTELS (EXC CASINO HOTELS) & MOTELS;NEW ORLEANS;LA;70116;
 601;HISTORIC URSULINES COTTAGE;1520 URSULINES AVE;4703 - BED & BREAKFAST INNS;NEW ORLEANS;LA;70116;
 602;HOSTEVA;201 MAGAZINE ST;4701 - HOTELS (EXC CASINO HOTELS) & MOTELS;NEW ORLEANS;LA;70130;
 603;OLD LA LA'S CREOLE COTTAGE;2125 LAUREL ST;4703 - BED & BREAKFAST INNS;NEW ORLEANS;LA;70130;
 604;WG CREOLE HOUSE;1724CLIO ST;4703 - BED & BREAKFAST INNS;NEW ORLEANS;LA;70113;
 605;CHATEAU HOTEL;1001 CHARTRES ST;4701 - HOTELS (EXC CASINO HOTELS) & MOTELS;NEW ORLEANS;LA;70130;
 606;CAMPECHE;634 N. WHITE ST;4703 - BED & BREAKFAST INNS;NEW ORLEANS;LA;70119;
 607;THE ELIZA JANE HOTEL;315 MAGAZINE ST;4701 - HOTELS (EXC CASINO HOTELS) & MOTELS;NEW ORLEANS;LA;70130;
 608;CAMBRIA NEW ORLEANS DOWNTOWN;632 TCHOUPITOULAS ST;4701 - HOTELS (EXC CASINO HOTELS) & MOTELS;NEW ORLEANS;LA;70130;
 609;LAFITTE GUEST HOUSE;1003 BOURBON ST;4701 - HOTELS (EXC CASINO HOTELS) & MOTELS;NEW ORLEANS;LA;70116;
 610;HYATT PLACE NEW ORLEANS CONVENTION CENTER;881 CONVENTION CENTER BLVD;4701 - HOTELS (EXC CASINO HOTELS) & MOTELS;NEW ORLEANS;LA;70130;
 611;W.M.COX;2109 CHARTRES ST;4703 - BED & BREAKFAST INNS;NEW ORLEANS;LA;70116;
 612;HOSTEEVA CALIFORNIA BUILDING BY HOSTEEVA;1111 TULANE AVE;4701 - HOTELS (EXC CASINO HOTELS) & MOTELS;NEW ORLEANS;LA;70112;
 613;EMBASSY SUITES CONVENTION CENTER;315 JULIA ST;4701 - HOTELS (EXC CASINO HOTELS) & MOTELS;NEW ORLEANS;LA;70130;
 614;GRAVIER;427 GRAVIER ST;4701 - HOTELS (EXC CASINO HOTELS) & MOTELS;NEW ORLEANS;LA;70130;
 615;COUNTRY INN & SUITES,NEW ORLEANS I-10 EAST;5801 READ BLVD;4701 - HOTELS (EXC CASINO HOTELS) & MOTELS;NEW ORLEANS;LA;70127;
 616;MAISON GRACE;2222 BURGUNDY ST;4701 - HOTELS (EXC CASINO HOTELS) & MOTELS;NEW ORLEANS;LA;70117;
 617;HI-NEW ORLEANS HOSTELLING INTERNATIONAL USA;1028 CANAL ST;4701 - HOTELS (EXC CASINO HOTELS) & MOTELS;NEW ORLEANS;LA;70112;
 618;ONE11 HOTEL;111 IBERVILLE ST;4701 - HOTELS (EXC CASINO HOTELS) & MOTELS;NEW ORLEANS;LA;70130;
 619;SULLY MANSION;2631 PRYTANIA ST;4701 - HOTELS (EXC CASINO HOTELS) & MOTELS;NEW ORLEANS;LA;70130;
 620;SEXTANT STAYS;1148 S PETERS ST;4701 - HOTELS (EXC CASINO HOTELS) & MOTELS;NEW ORLEANS;LA;70130;
 621;THE SYD;1730 CLIO ST;4701 - HOTELS (EXC CASINO HOTELS) & MOTELS;NEW ORLEANS;LA;70113;
 622;HAMPTON INN NEW ORLEANS-ST.CHARLES AVE./GARDEN DIS;3626 ST CHARLES AVE;4701 - HOTELS (EXC CASINO HOTELS) & MOTELS;NEW ORLEANS;LA;70115;
 623;SONDER USA, INC.;131 CARONDELET ST;4701 - HOTELS (EXC CASINO HOTELS) & MOTELS;NEW ORLEANS;LA;70112;
 624;CANOPY BY HILTON NEW ORLEANS;1100 TULANE AVE;4701 - HOTELS (EXC CASINO HOTELS) & MOTELS;NEW ORLEANS;LA;70112;
 625;OBEAH GUESTHOUSE;3132 N RAMPART ST;4703 - BED & BREAKFAST INNS;NEW ORLEANS;LA;70117;
 626;ROYAL RESIDENCE;2613 ROYAL ST;8806 - .1(43) BED AND BREAKFAST 1 TO 2 ROOMS;NEW ORLEANS;LA;70117;
 627;422 GRAVIER;422 GRAVIER;4701 - HOTELS (EXC CASINO HOTELS) & MOTELS;NEW ORLEANS;LA;70130;
 628;LA MAISON BOURBON;1421 BOURBON ST;4703 - BED & BREAKFAST INNS;NEW ORLEANS;LA;70116;
 629;L�AUBERGE PLACAGE;1724 MARAIS ST;4703 - BED & BREAKFAST INNS;NEW ORLEANS;LA;70116;
 630;DA EMPIRE;2222 POYDRAS ST;4701 - HOTELS (EXC CASINO HOTELS) & MOTELS;NEW ORLEANS;LA;70119;
 631;THE BREWER HOUSE FOR SECOND CHANCES, LLC;4700 VIOLA ST;4702 - ROOMING & BOARDING HOUSES;NEW ORLEANS;LA;70126;
 632;BUDGET INN EXPRESS;8542 CHEF MENTEUR HWY;4701 - HOTELS (EXC CASINO HOTELS) & MOTELS;NEW ORLEANS;LA;70127;
 633;1130 BARONNE;1130 BARONNE ST;4701 - HOTELS (EXC CASINO HOTELS) & MOTELS;NEW ORLEANS;LA;70113;
 634;TREME BLUE HOUSE EFILE;1210 N GALVEZ ST;4703 - BED & BREAKFAST INNS;NEW ORLEANS;LA;70119;
 635;SONDER USA;623 CANAL ST;4701 - HOTELS (EXC CASINO HOTELS) & MOTELS;NEW ORLEANS;LA;70130;
 636;LE MERIDIEN;333 POYDRAS ST;4701 - HOTELS (EXC CASINO HOTELS) & MOTELS;NEW ORLEANS;LA;70130;
 637;NITEY NITE INN LLC;1502 ELYSIAN FIELDS AVE;4701 - HOTELS (EXC CASINO HOTELS) & MOTELS;NEW ORLEANS;LA;70116;
 638;RODEWAY INN & SUITES;13552 CHEF MENTEUR HWY;4701 - HOTELS (EXC CASINO HOTELS) & MOTELS;NEW ORLEANS;LA;70129;
 639;SONDER USA, INC.;201 N RAMPART ST;4701 - HOTELS (EXC CASINO HOTELS) & MOTELS;NEW ORLEANS;LA;70112;
 640;CATALYST DEVELOPMENT, LLC;1364 MOSS ST;8807 - .1(43) BED AND BREAKFAST 3 TO 5 ROOMS;NEW ORLEANS;LA;70119;
 641;1226 BARONNE 2021 LLC;1226 BARONNE ST;4701 - HOTELS (EXC CASINO HOTELS) & MOTELS;NEW ORLEANS;LA;70113;
 642;SPRINGHILL SUITES BY MARRIOTT NEW ORLEANS;1600 CANAL ST;4701 - HOTELS (EXC CASINO HOTELS) & MOTELS;NEW ORLEANS;LA;70112;
 643;HOTEL VINACHE;1300 CANAL ST;4701 - HOTELS (EXC CASINO HOTELS) & MOTELS;NEW ORLEANS;LA;70112;
 644;LAUREN FRED;1311 TOURO ST;8806 - .1(43) BED AND BREAKFAST 1 TO 2 ROOMS;NEW ORLEANS;LA;70116;
 645;DEW DROP INN;2836 LASALLE ST;4701 - HOTELS (EXC CASINO HOTELS) & MOTELS;NEW ORLEANS;LA;70115;
 646;HOTEL HENRIETTA;3500 ST CHARLES AVE;4701 - HOTELS (EXC CASINO HOTELS) & MOTELS;NEW ORLEANS;LA;70115;
 647;RB OLD ARABI LLC;4200 ST. CLAUDE AVE;4701 - HOTELS (EXC CASINO HOTELS) & MOTELS;NEW ORLEANS;LA;70117;
 648;DREAMING TREE HOTEL;1525 PRYTANIA ST;4701 - HOTELS (EXC CASINO HOTELS) & MOTELS;NEW ORLEANS;LA;70130;
 649;4417 DRYADES ST, LLC;4417 DRYADES ST;4703 - BED & BREAKFAST INNS;NEW ORLEANS;LA;70115;
 650;HOTEL INDIGO;705 COMMON ST;4701 - HOTELS (EXC CASINO HOTELS) & MOTELS;NEW ORLEANS;LA;70130;
 651;ROYAL PALMS MOTEL & RV PARK;7800 CHEF MENTEUR HWY;4701 - HOTELS (EXC CASINO HOTELS) & MOTELS;NEW ORLEANS;LA;70126;
 652;COLUMNS HOTEL;3811 ST CHARLES AVE;4701 - HOTELS (EXC CASINO HOTELS) & MOTELS;NEW ORLEANS;LA;70115;
 653;HIGGINS HOTEL & CONFERENCE CENTER;1000 MAGAZINE ST;4701 - HOTELS (EXC CASINO HOTELS) & MOTELS;NEW ORLEANS;LA;70130;
 654;THE PELHAM HOTEL;444 COMMON ST;4701 - HOTELS (EXC CASINO HOTELS) & MOTELS;NEW ORLEANS;LA;70130;
 655;HAMPTON INN;1300 CANAL ST;4701 - HOTELS (EXC CASINO HOTELS) & MOTELS;NEW ORLEANS;LA;70112;
 656;RE NEW ORLEANS PROPERTY MANAGEMENT;1531 URSULINES AVE;4703 - BED & BREAKFAST INNS;NEW ORLEANS;LA;70116;
 657;THE BRANDYWINE BY SEXTANT;888 BARONNE ST;4701 - HOTELS (EXC CASINO HOTELS) & MOTELS;NEW ORLEANS;LA;70113;
 658;HOSTEEVA, LLC;1210 CARONDELET ST;4701 - HOTELS (EXC CASINO HOTELS) & MOTELS;NEW ORLEANS;LA;70130;
 659;FRENCHMEN HOTEL;417 FRENCHMEN ST;4701 - HOTELS (EXC CASINO HOTELS) & MOTELS;NEW ORLEANS;LA;70116;
 660;CANOPY NEW ORLEANS DOWNTOWN;1100 TULANE AVE;4701 - HOTELS (EXC CASINO HOTELS) & MOTELS;NEW ORLEANS;LA;70112;
 661;SEXTANT STAYS;127 CARONDELET ST;4701 - HOTELS (EXC CASINO HOTELS) & MOTELS;NEW ORLEANS;LA;70112;
 662;DENNIS GUEST HOUSE;401 PARK BLVD;8806 - .1(43) BED AND BREAKFAST 1 TO 2 ROOMS;NEW ORLEANS;LA;70114;
 663;MOXY NEW ORLEANS DOWNTOWN/FQR AREA;210 O'KEEFE AVE;4701 - HOTELS (EXC CASINO HOTELS) & MOTELS;NEW ORLEANS;LA;70112;
 664;LA QUINTA INNS & SUITES NEW ORLEANS DOWNTOWN;301 CAMP ST;4701 - HOTELS (EXC CASINO HOTELS) & MOTELS;NEW ORLEANS;LA;70130;
 665;THE REDEMPTORY ON ROYAL;3029 ROYAL ST;4703 - BED & BREAKFAST INNS;NEW ORLEANS;LA;70117;
 666;GATOR BREAUX LLC;1028 PORT ST;8806 - .1(43) BED AND BREAKFAST 1 TO 2 ROOMS;NEW ORLEANS;LA;70117;
 667;LIONS INN;2515 CHARTRES ST;4703 - BED & BREAKFAST INNS;NEW ORLEANS;LA;70117;
 668;ACCESSORY B&B;1210 N GALVEZ ST;4703 - BED & BREAKFAST INNS;NEW ORLEANS;LA;70116;
 669;PAUL COUGHLIN;917 N VILLERE ST;4703 - BED & BREAKFAST INNS;NEW ORLEANS;LA;70116;
 670;SOUTH MARKET PROPERTIES LLC;710 BARONNE ST;4701 - HOTELS (EXC CASINO HOTELS) & MOTELS;NEW ORLEANS;LA;70113;
 671;OAB HOTELS;1625 PRYTANIA ST;4701 - HOTELS (EXC CASINO HOTELS) & MOTELS;NEW ORLEANS;LA;70130;
 672;THE IRIS MOTEL LLC;3610 TULANE AVE;4701 - HOTELS (EXC CASINO HOTELS) & MOTELS;NEW ORLEANS;LA;70119;
 673;STANDUKE HOSPITALITY;315 GIROD ST;4701 - HOTELS (EXC CASINO HOTELS) & MOTELS;NEW ORLEANS;LA;70130;
 674;UB LODGING LLC;7800 CHEF MENTEUR HWY;4701 - HOTELS (EXC CASINO HOTELS) & MOTELS;NEW ORLEANS;LA;70126;
 675;HAMPTON INN & SUITES NEW ORLEANS DOWNTOWN;226 CARONDELET ST;4701 - HOTELS (EXC CASINO HOTELS) & MOTELS;NEW ORLEANS;LA;70130;
 676;HAMPTON INN NEW ORLEANS-ST.CHARLES AVE./GARDEN DIS;3626 ST CHARLES AVE;4701 - HOTELS (EXC CASINO HOTELS) & MOTELS;NEW ORLEANS;LA;70115;
 677;LITTLE LAGNIAPPE HOTEL LLC;747 ST CHARLES AVE;4701 - HOTELS (EXC CASINO HOTELS) & MOTELS;NEW ORLEANS;LA;70130;
 678;222 LOYOLA TENANT;222 LOYOLA AVE;4701 - HOTELS (EXC CASINO HOTELS) & MOTELS;NEW ORLEANS;LA;70112;
 679;HOTEL ST MARIE;827 TOULOUSE ST;4701 - HOTELS (EXC CASINO HOTELS) & MOTELS;NEW ORLEANS;LA;70112-3421;
 680;COURTYARD BY MARRIOTT IMB-[H/P];124 ST CHARLES AVE;4701 - HOTELS (EXC CASINO HOTELS) & MOTELS;NEW ORLEANS;LA;70130;
 681;ASHTON'S BED & BREAKFAST;2023 ESPLANADE AVE;4701 - HOTELS (EXC CASINO HOTELS) & MOTELS;NEW ORLEANS;LA;70116;
 682;KATE & DAVES BED & BREAKFAST;715 ST FERDINAND ST;4703 - BED & BREAKFAST INNS;NEW ORLEANS;LA;70117-7367;
 683;COMFORT SUITES;7051 BULLARD AVE;4701 - HOTELS (EXC CASINO HOTELS) & MOTELS;NEW ORLEANS;LA;70128-2307;
 684;A CRESCENT CITY GUEST;612 MARIGNY ST;4703 - BED & BREAKFAST INNS;NEW ORLEANS;LA;70117;
 685;NEW ORLEANS MARRIOTT AT THE CONVENTION CENTER-[H/P;859 CONVENTION CENTER BLVD;4701 - HOTELS (EXC CASINO HOTELS) & MOTELS;NEW ORLEANS;LA;70130;
 686;OAKVIEW BED & BREAKFAST;1172 CITY PARK AVE;4703 - BED & BREAKFAST INNS;NEW ORLEANS;LA;70119;
 687;FRENCH QUARTER TOWNHOUSES HOTEL;1027 N RAMPART ST;4701 - HOTELS (EXC CASINO HOTELS) & MOTELS;NEW ORLEANS;LA;70116;
 688;THE ROOSEVELT HOTEL WAC;123 BARONNE ST;4701 - HOTELS (EXC CASINO HOTELS) & MOTELS;NEW ORLEANS;LA;70112;
 689;ST. PHILIP FRENCH QUARTER APARTMENTS;612 ST PHILIP ST;4701 - HOTELS (EXC CASINO HOTELS) & MOTELS;NEW ORLEANS;LA;70116;
 690;CANAL STREET INN;3620 CANAL ST;4701 - HOTELS (EXC CASINO HOTELS) & MOTELS;NEW ORLEANS;LA;70119;
 691;HOTEL ROYAL;1006 ROYAL ST;4701 - HOTELS (EXC CASINO HOTELS) & MOTELS;NEW ORLEANS;LA;70116;
 692;THE OLD NO. 77 HOTEL & CHANDLERY - MAIN;535 TCHOUPITOULAS ST;4701 - HOTELS (EXC CASINO HOTELS) & MOTELS;NEW ORLEANS;LA;70130;
 693;STATELY HOME GUEST HOUSE;1247 ESPLANADE AVE;4703 - BED & BREAKFAST INNS;NEW ORLEANS;LA;70116;
 694;THE NATCHEZ NEW ORLEANS MT;530 NATCHEZ ST;4701 - HOTELS (EXC CASINO HOTELS) & MOTELS;NEW ORLEANS;LA;70130;
 695;FLORVILLE MANOR;1447 N VILLERE ST;4703 - BED & BREAKFAST INNS;NEW ORLEANS;LA;70116;
 696;2532 N RAMPART STREET, LLC;2532 N RAMPART ST;4703 - BED & BREAKFAST INNS;NEW ORLEANS;LA;70117;
 697;MAZANT HOLDING;906 MAZANT ST;4703 - BED & BREAKFAST INNS;NEW ORLEANS;LA;70117;
 698;MARAIS HOUSE;1123 MARAIS ST;4703 - BED & BREAKFAST INNS;NEW ORLEANS;LA;70116;
 699;HOSTEEVA;4333 CANAL ST;4701 - HOTELS (EXC CASINO HOTELS) & MOTELS;NEW ORLEANS;LA;70119;
 700;FRENCHMEN OASIS;1242 FRENCHMEN ST;4703 - BED & BREAKFAST INNS;NEW ORLEANS;LA;70116;
 701;631 DESIRE LLC;631 DESIRE ST;4703 - BED & BREAKFAST INNS;NEW ORLEANS;LA;70117;
 702;THE MERCHANTILE HOTEL;727 S PETERS ST;4701 - HOTELS (EXC CASINO HOTELS) & MOTELS;NEW ORLEANS;LA;70130;
 703;NOPSI HOTEL;317 BARONNE ST;4701 - HOTELS (EXC CASINO HOTELS) & MOTELS;NEW ORLEANS;LA;70112;
 704;PARISIAN COURTYARD INN;1726 PRYTANIA ST;4703 - BED & BREAKFAST INNS;NEW ORLEANS;LA;70130;
 705;ESPLANADE GUEST HOUSE;P.O. BOX 24127;4703 - BED & BREAKFAST INNS;NEW ORLEANS;LA;70184;
 706;HILTON GARDEN INN FRENCH QUARTER/CBD;821 GRAVIER ST;4701 - HOTELS (EXC CASINO HOTELS) & MOTELS;NEW ORLEANS;LA;70112;
 707;925 COMMON;925COMMON ST;4701 - HOTELS (EXC CASINO HOTELS) & MOTELS;NEW ORLEANS;LA;70112;
 708;SONESTA ES SUITES NEW OLEANS;212 LOYOLA AVE;4701 - HOTELS (EXC CASINO HOTELS) & MOTELS;NEW ORLEANS;LA;70112;
 709;FRENCHMEN ORLEANS AT 519;519 FRENCHMEN ST;4701 - HOTELS (EXC CASINO HOTELS) & MOTELS;NEW ORLEANS;LA;70116;
 710;1615 OCH;1615 ORETHA CASTLE HALEY BLVD;4701 - HOTELS (EXC CASINO HOTELS) & MOTELS;NEW ORLEANS;LA;70113;
 711;SEXTANT STAYS;822 PERDIDO ST;4701 - HOTELS (EXC CASINO HOTELS) & MOTELS;NEW ORLEANS;LA;70112;
 712;THE SAINT NOLA HOTEL;931 CANAL ST;4701 - HOTELS (EXC CASINO HOTELS) & MOTELS;NEW ORLEANS;LA;70112;
 713;SYCAMORE HOUSE;5200 DANNEEL ST;8807 - .1(43) BED AND BREAKFAST 3 TO 5 ROOMS;NEW ORLEANS;LA;70115;
 714;TWO CANAL MASTER TENANT;2 CANAL ST;4701 - HOTELS (EXC CASINO HOTELS) & MOTELS;NEW ORLEANS;LA;70130;
 715;BOURBON ORLEANS HOTEL;717 ORLEANS AVE;4701 - HOTELS (EXC CASINO HOTELS) & MOTELS;NEW ORLEANS;LA;70116;
 716;SPRINGHILL SUITES BY MARRIOTT NEW ORLEANS;1600 CANAL STREET;4701 - HOTELS (EXC CASINO HOTELS) & MOTELS;NEW ORLEANS;LA;70112;
 717;LIONS GATE MANSION;1700 JACKSON AVE;4703 - BED & BREAKFAST INNS;NEW ORLEANS;LA;70113;
 718;1501 ORETHA CASTLE HALEY BLVD, LLC;1212 MAGAZINE ST;4703 - BED & BREAKFAST INNS;NEW ORLEANS;LA;70130;
 719;GRAY STREET HOTEL;1618 PRYTANIA ST;4701 - HOTELS (EXC CASINO HOTELS) & MOTELS;NEW ORLEANS;LA;70130;
 720;THE ELIZA JANE HOTEL, COUVANT AND THE PRESSROOM;315 MAGAZINE ST;4701 - HOTELS (EXC CASINO HOTELS) & MOTELS;NEW ORLEANS;LA;70130;
 721;HARCOL HOUSE;614 BARONNE ST;4701 - HOTELS (EXC CASINO HOTELS) & MOTELS;NEW ORLEANS;LA;70113;
 722;GLENROSE MOTEL;7930 CHEF MENTEUR HWY;4701 - HOTELS (EXC CASINO HOTELS) & MOTELS;NEW ORLEANS;LA;70126-5344;
 723;HOLIDAY INN DTN SUPERDOME HTM;330 LOYOLA AVE;4701 - HOTELS (EXC CASINO HOTELS) & MOTELS;NEW ORLEANS;LA;70112;
 724;CHATEAU LEMOYNEATTN: FINANCE DEPT:;301 DAUPHINE ST;4701 - HOTELS (EXC CASINO HOTELS) & MOTELS;NEW ORLEANS;LA;70112;
 725;ST CHARLES GUEST HOUSE;1748 PRYTANIA ST;4703 - BED & BREAKFAST INNS;NEW ORLEANS;LA;70130;
 726;HOTEL VILLA CONVENTO;616 URSULINES AVE;4701 - HOTELS (EXC CASINO HOTELS) & MOTELS;NEW ORLEANS;LA;70116;
 727;NEW ORLEANS INN;5035 CHEF MENTEUR HWY;4704 - TRAVELER ACCOMMODATION, ALL OTH;NEW ORLEANS;LA;70126;
 728;PLACE D'ARMES HOTEL;625 ST ANN ST;4701 - HOTELS (EXC CASINO HOTELS) & MOTELS;NEW ORLEANS;LA;70116-3212;
 729;JEAN LAFITTE HOUSE;613 ESPLANADE AVE;4704 - TRAVELER ACCOMMODATION, ALL OTH;NEW ORLEANS;LA;70116-2018;
 730;INDIA HOUSE BACKPACKERS HOTEL;124 S LOPEZ ST;4701 - HOTELS (EXC CASINO HOTELS) & MOTELS;NEW ORLEANS;LA;70119;
 731;JEFF DAVIS;2011 IBERVILLE ST;4702 - ROOMING & BOARDING HOUSES;NEW ORLEANS;LA;70112;
 732;ENTROPY ROOMS;300 S NORMAN C FRANCIS PKWY;4702 - ROOMING & BOARDING HOUSES;NEW ORLEANS;LA;70119-6232;
 733;CHATEAU ESPLANADE;1261 ESPLANADE AVE;4701 - HOTELS (EXC CASINO HOTELS) & MOTELS;NEW ORLEANS;LA;70116;
 734;CHIMES BED & BREAKFAST (THE);1146 CONSTANTINOPLE ST;4703 - BED & BREAKFAST INNS;NEW ORLEANS;LA;70115;
 735;MAISON LAFAYETTE;1221 HARMONY ST;4703 - BED & BREAKFAST INNS;NEW ORLEANS;LA;70115;
 736;HUBBARD MANSION BED & BREAKFAST;3535 ST CHARLES AVE;4703 - BED & BREAKFAST INNS;NEW ORLEANS;LA;70115;
 737;ANTEBELLUM GUEST HOUSE;1333 ESPLANADE AVE;4703 - BED & BREAKFAST INNS;NEW ORLEANS;LA;70116;
 738;PIERRE COULON GUEST HOUSE;712-14 SPAIN ST;4703 - BED & BREAKFAST INNS;NEW ORLEANS;LA;70117;
 739;BOUGAINVILLEA HOUSE;924 GOVERNOR NICHOLLS ST;4703 - BED & BREAKFAST INNS;NEW ORLEANS;LA;70116;
 740;BLUEGREEN RESORTS MANAGEMENT;115 DECATUR ST;4701 - HOTELS (EXC CASINO HOTELS) & MOTELS;NEW ORLEANS;LA;70130;
 741;CREOLE INN RUE DAUPHINE;2471 DAUPHINE ST;4703 - BED & BREAKFAST INNS;NEW ORLEANS;LA;70117;
 742;HOTEL PROVINCIAL;1024 CHARTRES ST;4701 - HOTELS (EXC CASINO HOTELS) & MOTELS;NEW ORLEANS;LA;70116;
 743;BOHEME DE MARIGNY;735 TOURO ST;4703 - BED & BREAKFAST INNS;NEW ORLEANS;LA;70116;
 744;VOCO ST. JAMES HOTEL;330 MAGAZINE ST;4701 - HOTELS (EXC CASINO HOTELS) & MOTELS;NEW ORLEANS;LA;70130;
 745;FLEUR DE LIS MANSION;1216 ANNUNCIATION ST;4703 - BED & BREAKFAST INNS;NEW ORLEANS;LA;70130;
 746;INTER - CONTINENTAL ROOMS;444 ST CHARLES AVE;4701 - HOTELS (EXC CASINO HOTELS) & MOTELS;NEW ORLEANS;LA;70130;
 747;BEST WAY INN & SUITES & TRAILOR PARK;6042 CHEF MENTEUR HWY;4701 - HOTELS (EXC CASINO HOTELS) & MOTELS;NEW ORLEANS;LA;70126;
 748;LONDON LODGE MOTEL;9301 AIRLINE HWY;4701 - HOTELS (EXC CASINO HOTELS) & MOTELS;NEW ORLEANS;LA;70118;
 749;ACE HOTEL;600 CARONDELET ST;4701 - HOTELS (EXC CASINO HOTELS) & MOTELS;NEW ORLEANS;LA;70130;
 750;APARIUM HOTEL GROUP;2031 SAINT CHARLES AVE;4701 - HOTELS (EXC CASINO HOTELS) & MOTELS;NEW ORLEANS;LA;70130;
 751;HISTORIC STREETCAR INN;1509 SAINT CHARLES AVE;4701 - HOTELS (EXC CASINO HOTELS) & MOTELS;NEW ORLEANS;LA;70130;
 752;FRENCH QUARTER MANSION BOUTIQUE HOTEL;730 DUMAINE ST;4701 - HOTELS (EXC CASINO HOTELS) & MOTELS;NEW ORLEANS;LA;70116;
 753;BENACHI HOUSE;2257 BAYOU RD;4703 - BED & BREAKFAST INNS;NEW ORLEANS;LA;70119;
 754;LA FEMME FRANCAISE NATASHA, LLC;2028-2030 ST. CLAUDE AVE;4703 - BED & BREAKFAST INNS;NEW ORLEANS;LA;70116;
 755;CHATEAU MANAGEMENT;527 MANDEVILLE ST;4703 - BED & BREAKFAST INNS;NEW ORLEANS;LA;70117;
 756;MASON D'OR;1911 ROYAL ST;4703 - BED & BREAKFAST INNS;NEW ORLEANS;LA;70116;
 757;BLUE60 GUEST HOUSE;1008 ELYSIAN FIELDS AVE;4703 - BED & BREAKFAST INNS;NEW ORLEANS;LA;70117;
 758;HOTEL LE MARAIS;717 CONTI ST;4701 - HOTELS (EXC CASINO HOTELS) & MOTELS;NEW ORLEANS;LA;70130;
 759;HOTEL FONTENOT;501 TCHOUPITOULAS ST;4701 - HOTELS (EXC CASINO HOTELS) & MOTELS;NEW ORLEANS;LA;70130;
 760;PENELOPE B B;1211 GOVERNOR NICHOLLS ST;4703 - BED & BREAKFAST INNS;NEW ORLEANS;LA;70116;
 761;WYNDHAM LA BELLE MAISON;209 MAGAZINE ST;4701 - HOTELS (EXC CASINO HOTELS) & MOTELS;NEW ORLEANS;LA;70130;
 762;SELINA CATAHOULA NEW ORLEANS-HOTEL;908 UNION ST;4701 - HOTELS (EXC CASINO HOTELS) & MOTELS;NEW ORLEANS;LA;70112;
 763;SONDER USA, INC;301 ST CHARLES AVE;4701 - HOTELS (EXC CASINO HOTELS) & MOTELS;NEW ORLEANS;LA;70130;
 764;THE CHLOE;4125 ST CHARLES AVE;4701 - HOTELS (EXC CASINO HOTELS) & MOTELS;NEW ORLEANS;LA;70115;
 765;TRAVELERS NEW ORLEANS;1476 MAGAZINE ST;4703 - BED & BREAKFAST INNS;NEW ORLEANS;LA;70130;
 766;HOTEL ST VINCENT;1507 MAGAZINE ST;4701 - HOTELS (EXC CASINO HOTELS) & MOTELS;NEW ORLEANS;LA;70130;
 767;ORLEANS HOUSE LLC;1800 CANAL ST;4701 - HOTELS (EXC CASINO HOTELS) & MOTELS;NEW ORLEANS;LA;70119;
 768;2425 CHARTRES ST LLC;2425 CHARTRES ST;4703 - BED & BREAKFAST INNS;NEW ORLEANS;LA;70117;
 769;NOLA ST CLAUDE;1919 ST CLAUDE AVE;4701 - HOTELS (EXC CASINO HOTELS) & MOTELS;NEW ORLEANS;LA;70116;
 770;INDIGO ST. CHARLES;705 COMMON STREET;4701 - HOTELS (EXC CASINO HOTELS) & MOTELS;NEW ORLEANS;LA;70130;
 771;AULD SWEET OLIVE BED & BREAKFAST;2460 N RAMPART ST;4703 - BED & BREAKFAST INNS;NEW ORLEANS;LA;70117;
 772;HOTEL TREMELLC;2552 ST PHILLIP STREET;4703 - BED & BREAKFAST INNS;NEW ORLEANS;LA;70112;
 773;2545 BAYOU ROAD;2545 BAYOU RD;4703 - BED & BREAKFAST INNS;NEW ORLEANS;LA;70119;
 774;TERRAVET REAL ESTATE FUND III LP;1805/1809 MAGAZINE ST;4702 - ROOMING & BOARDING HOUSES;NEW ORLEANS;LA;70130;
 775;EXCOGITATE LLC;2301 DAUPHINE ST;8806 - .1(43) BED AND BREAKFAST 1 TO 2 ROOMS;NEW ORLEANS;LA;70117;
 776;SUPER 8;6322 CHEF MENTEUR HWY;4701 - HOTELS (EXC CASINO HOTELS) & MOTELS;NEW ORLEANS;LA;70126;
 777;BERNARDO DE GALVEZ INN;1630 N GALVEZ ST;8806 - .1(43) BED AND BREAKFAST 1 TO 2 ROOMS;NEW ORLEANS;LA;70116;
 778;7418 CHEF MENTEUR LLC;7418 CHEF MENTEUR HWY;4701 - HOTELS (EXC CASINO HOTELS) & MOTELS;NEW ORLEANS;LA;70126;
 779;THE RUBENSTEIN HOTEL;104 ST CHARLES AVE;4701 - HOTELS (EXC CASINO HOTELS) & MOTELS;NEW ORLEANS;LA;70130;
 780;SEDLEY SCOTT;824 ORANGE ST;8806 - .1(43) BED AND BREAKFAST 1 TO 2 ROOMS;NEW ORLEANS;LA;70130;
 781;611-613 COMMERCE LLC;611 COMMERCE ST;4701 - HOTELS (EXC CASINO HOTELS) & MOTELS;NEW ORLEANS;LA;70130;
 782;THE WINDSOR COURT;300 GRAVIER ST;4701 - HOTELS (EXC CASINO HOTELS) & MOTELS;NEW ORLEANS;LA;70130;
;;;;;;;
